[
  {
    "OBJECT_NAME": "STARLINK-11512 [DTC]",
    "OBJECT_ID": "25004G",
    "EPOCH": "2025-11-11T07:14:43.159488",
    "MEAN_MOTION": 15.70995561,
    "ECCENTRICITY": 0.0001626,
    "INCLINATION": 42.999,
    "RA_OF_ASC_NODE": 63.9341,
    "ARG_OF_PERICENTER": 253.4962,
    "MEAN_ANOMALY": 106.5727,
    "EPHEMERIS_TYPE": 0,
    "CLASSIFICATION_TYPE": "U",
    "NORAD_CAT_ID": 62517,
    "ELEMENT_SET_NO": 999,
    "REV_AT_EPOCH": 4859,
    "BSTAR": 0.0023472000000000002,
    "MEAN_MOTION_DOT": 0.00314448,
    "MEAN_MOTION_DDOT": 0.0,
    "TLE_LINE1": "1 62517U 25004G   25315.30188842  .00314448  00000+0  23472-2 0  9995",
    "TLE_LINE2": "2 62517  42.9990  63.9341 0001626 253.4962 106.5727 15.70995561 48590",
    "COMMENT": "Grouped by shell and plane from TLE"
  },
  {
    "OBJECT_NAME": "STARLINK-11450 [DTC]",
    "OBJECT_ID": "25004H",
    "EPOCH": "2025-11-11T00:22:48.267552",
    "MEAN_MOTION": 15.71027987,
    "ECCENTRICITY": 0.0001248,
    "INCLINATION": 42.9992,
    "RA_OF_ASC_NODE": 66.1077,
    "ARG_OF_PERICENTER": 320.9842,
    "MEAN_ANOMALY": 39.0936,
    "EPHEMERIS_TYPE": 0,
    "CLASSIFICATION_TYPE": "U",
    "NORAD_CAT_ID": 62518,
    "ELEMENT_SET_NO": 999,
    "REV_AT_EPOCH": 4854,
    "BSTAR": 0.00249,
    "MEAN_MOTION_DOT": 0.00334898,
    "MEAN_MOTION_DDOT": 0.0,
    "TLE_LINE1": "1 62518U 25004H   25315.01583643  .00334898  00000+0  24900-2 0  9990",
    "TLE_LINE2": "2 62518  42.9992  66.1077 0001248 320.9842  39.0936 15.71027987 48547",
    "COMMENT": "Grouped by shell and plane from TLE"
  },
  {
    "OBJECT_NAME": "STARLINK-11507 [DTC]",
    "OBJECT_ID": "25004J",
    "EPOCH": "2025-11-10T16:52:38.871552",
    "MEAN_MOTION": 15.70973409,
    "ECCENTRICITY": 0.0001445,
    "INCLINATION": 42.9987,
    "RA_OF_ASC_NODE": 68.0658,
    "ARG_OF_PERICENTER": 291.1232,
    "MEAN_ANOMALY": 68.9481,
    "EPHEMERIS_TYPE": 0,
    "CLASSIFICATION_TYPE": "U",
    "NORAD_CAT_ID": 62519,
    "ELEMENT_SET_NO": 999,
    "REV_AT_EPOCH": 4849,
    "BSTAR": 0.0029606,
    "MEAN_MOTION_DOT": 0.00400566,
    "MEAN_MOTION_DDOT": 0.0,
    "TLE_LINE1": "1 62519U 25004J   25314.70322768  .00400566  00000+0  29606-2 0  9999",
    "TLE_LINE2": "2 62519  42.9987  68.0658 0001445 291.1232  68.9481 15.70973409 48497",
    "COMMENT": "Grouped by shell and plane from TLE"
  },
  {
    "OBJECT_NAME": "STARLINK-11482 [DTC]",
    "OBJECT_ID": "25004K",
    "EPOCH": "2025-11-11T07:22:21.953856",
    "MEAN_MOTION": 15.71079637,
    "ECCENTRICITY": 0.000233,
    "INCLINATION": 42.9984,
    "RA_OF_ASC_NODE": 63.9751,
    "ARG_OF_PERICENTER": 252.3274,
    "MEAN_ANOMALY": 107.7339,
    "EPHEMERIS_TYPE": 0,
    "CLASSIFICATION_TYPE": "U",
    "NORAD_CAT_ID": 62520,
    "ELEMENT_SET_NO": 999,
    "REV_AT_EPOCH": 4859,
    "BSTAR": 0.0036758000000000003,
    "MEAN_MOTION_DOT": 0.00506137,
    "MEAN_MOTION_DDOT": 0.0,
    "TLE_LINE1": "1 62520U 25004K   25315.30719854  .00506137  00000+0  36758-2 0  9991",
    "TLE_LINE2": "2 62520  42.9984  63.9751 0002330 252.3274 107.7339 15.71079637 48599",
    "COMMENT": "Grouped by shell and plane from TLE"
  },
  {
    "OBJECT_NAME": "STARLINK-11528 [DTC]",
    "OBJECT_ID": "25004L",
    "EPOCH": "2025-11-10T17:15:34.172928",
    "MEAN_MOTION": 15.70907465,
    "ECCENTRICITY": 0.000131,
    "INCLINATION": 42.9992,
    "RA_OF_ASC_NODE": 68.1893,
    "ARG_OF_PERICENTER": 296.7519,
    "MEAN_ANOMALY": 63.3214,
    "EPHEMERIS_TYPE": 0,
    "CLASSIFICATION_TYPE": "U",
    "NORAD_CAT_ID": 62521,
    "ELEMENT_SET_NO": 999,
    "REV_AT_EPOCH": 4849,
    "BSTAR": 0.0020413000000000002,
    "MEAN_MOTION_DOT": 0.0027096,
    "MEAN_MOTION_DDOT": 0.0,
    "TLE_LINE1": "1 62521U 25004L   25314.71914552  .00270960  00000+0  20413-2 0  9991",
    "TLE_LINE2": "2 62521  42.9992  68.1893 0001310 296.7519  63.3214 15.70907465 48490",
    "COMMENT": "Grouped by shell and plane from TLE"
  },
  {
    "OBJECT_NAME": "STARLINK-11516 [DTC]",
    "OBJECT_ID": "25004M",
    "EPOCH": "2025-11-11T07:45:17.980992",
    "MEAN_MOTION": 15.70911128,
    "ECCENTRICITY": 0.0002294,
    "INCLINATION": 42.9998,
    "RA_OF_ASC_NODE": 64.1039,
    "ARG_OF_PERICENTER": 258.5499,
    "MEAN_ANOMALY": 101.5111,
    "EPHEMERIS_TYPE": 0,
    "CLASSIFICATION_TYPE": "U",
    "NORAD_CAT_ID": 62522,
    "ELEMENT_SET_NO": 999,
    "REV_AT_EPOCH": 4859,
    "BSTAR": 0.002254,
    "MEAN_MOTION_DOT": 0.00300369,
    "MEAN_MOTION_DDOT": 0.0,
    "TLE_LINE1": "1 62522U 25004M   25315.32312478  .00300369  00000+0  22540-2 0  9999",
    "TLE_LINE2": "2 62522  42.9998  64.1039 0002294 258.5499 101.5111 15.70911128 48593",
    "COMMENT": "Grouped by shell and plane from TLE"
  },
  {
    "OBJECT_NAME": "STARLINK-11527 [DTC]",
    "OBJECT_ID": "25004N",
    "EPOCH": "2025-11-11T07:30:00.723168",
    "MEAN_MOTION": 15.70991005,
    "ECCENTRICITY": 0.000262,
    "INCLINATION": 43.0018,
    "RA_OF_ASC_NODE": 64.0213,
    "ARG_OF_PERICENTER": 283.8705,
    "MEAN_ANOMALY": 76.1872,
    "EPHEMERIS_TYPE": 0,
    "CLASSIFICATION_TYPE": "U",
    "NORAD_CAT_ID": 62523,
    "ELEMENT_SET_NO": 999,
    "REV_AT_EPOCH": 4859,
    "BSTAR": 0.0027778000000000004,
    "MEAN_MOTION_DOT": 0.00374908,
    "MEAN_MOTION_DDOT": 0.0,
    "TLE_LINE1": "1 62523U 25004N   25315.31250837  .00374908  00000+0  27778-2 0  9997",
    "TLE_LINE2": "2 62523  43.0018  64.0213 0002620 283.8705  76.1872 15.70991005 48599",
    "COMMENT": "Grouped by shell and plane from TLE"
  },
  {
    "OBJECT_NAME": "STARLINK-35748",
    "OBJECT_ID": "25244A",
    "EPOCH": "2025-11-11T06:00:02.000160",
    "MEAN_MOTION": 15.7223426,
    "ECCENTRICITY": 0.0001053,
    "INCLINATION": 53.1585,
    "RA_OF_ASC_NODE": 65.5174,
    "ARG_OF_PERICENTER": 86.0347,
    "MEAN_ANOMALY": 109.1887,
    "EPHEMERIS_TYPE": 0,
    "CLASSIFICATION_TYPE": "U",
    "NORAD_CAT_ID": 66206,
    "ELEMENT_SET_NO": 999,
    "REV_AT_EPOCH": 320,
    "BSTAR": 0.0,
    "MEAN_MOTION_DOT": -0.01880068,
    "MEAN_MOTION_DDOT": 0.0,
    "TLE_LINE1": "1 66206U 25244A   25315.25002315 -.01880068  00000+0 -16041-1 0  9996",
    "TLE_LINE2": "2 66206  53.1585  65.5174 0001053  86.0347 109.1887 15.72234260  3205",
    "COMMENT": "Grouped by shell and plane from TLE"
  },
  {
    "OBJECT_NAME": "STARLINK-35747",
    "OBJECT_ID": "25244B",
    "EPOCH": "2025-11-11T06:00:02.000160",
    "MEAN_MOTION": 15.74191677,
    "ECCENTRICITY": 9.58e-05,
    "INCLINATION": 53.1576,
    "RA_OF_ASC_NODE": 65.5095,
    "ARG_OF_PERICENTER": 97.1316,
    "MEAN_ANOMALY": 101.6267,
    "EPHEMERIS_TYPE": 0,
    "CLASSIFICATION_TYPE": "U",
    "NORAD_CAT_ID": 66207,
    "ELEMENT_SET_NO": 999,
    "REV_AT_EPOCH": 320,
    "BSTAR": 0.0,
    "MEAN_MOTION_DOT": -0.00048701,
    "MEAN_MOTION_DDOT": 0.0,
    "TLE_LINE1": "1 66207U 25244B   25315.25002315 -.00048701  00000+0 -33011-3 0  9994",
    "TLE_LINE2": "2 66207  53.1576  65.5095 0000958  97.1316 101.6267 15.74191677  3205",
    "COMMENT": "Grouped by shell and plane from TLE"
  },
  {
    "OBJECT_NAME": "STARLINK-35751",
    "OBJECT_ID": "25244C",
    "EPOCH": "2025-11-11T06:00:02.000160",
    "MEAN_MOTION": 15.72237964,
    "ECCENTRICITY": 0.0001217,
    "INCLINATION": 53.1584,
    "RA_OF_ASC_NODE": 65.5095,
    "ARG_OF_PERICENTER": 85.6926,
    "MEAN_ANOMALY": 113.3643,
    "EPHEMERIS_TYPE": 0,
    "CLASSIFICATION_TYPE": "U",
    "NORAD_CAT_ID": 66208,
    "ELEMENT_SET_NO": 999,
    "REV_AT_EPOCH": 331,
    "BSTAR": 0.0,
    "MEAN_MOTION_DOT": -0.01885672,
    "MEAN_MOTION_DDOT": 0.0,
    "TLE_LINE1": "1 66208U 25244C   25315.25002315 -.01885672  00000+0 -16093-1 0  9991",
    "TLE_LINE2": "2 66208  53.1584  65.5095 0001217  85.6926 113.3643 15.72237964  3311",
    "COMMENT": "Grouped by shell and plane from TLE"
  },
  {
    "OBJECT_NAME": "STARLINK-35750",
    "OBJECT_ID": "25244D",
    "EPOCH": "2025-11-11T06:00:02.000160",
    "MEAN_MOTION": 15.72231136,
    "ECCENTRICITY": 0.0001075,
    "INCLINATION": 53.1583,
    "RA_OF_ASC_NODE": 65.5007,
    "ARG_OF_PERICENTER": 93.049,
    "MEAN_ANOMALY": 109.8446,
    "EPHEMERIS_TYPE": 0,
    "CLASSIFICATION_TYPE": "U",
    "NORAD_CAT_ID": 66209,
    "ELEMENT_SET_NO": 999,
    "REV_AT_EPOCH": 328,
    "BSTAR": 0.0,
    "MEAN_MOTION_DOT": -0.01876525,
    "MEAN_MOTION_DDOT": 0.0,
    "TLE_LINE1": "1 66209U 25244D   25315.25002315 -.01876525  00000+0 -16009-1 0  9996",
    "TLE_LINE2": "2 66209  53.1583  65.5007 0001075  93.0490 109.8446 15.72231136  3287",
    "COMMENT": "Grouped by shell and plane from TLE"
  },
  {
    "OBJECT_NAME": "STARLINK-35740",
    "OBJECT_ID": "25244E",
    "EPOCH": "2025-11-11T06:00:02.000160",
    "MEAN_MOTION": 15.72236877,
    "ECCENTRICITY": 0.000112,
    "INCLINATION": 53.1585,
    "RA_OF_ASC_NODE": 65.5048,
    "ARG_OF_PERICENTER": 93.4846,
    "MEAN_ANOMALY": 107.4892,
    "EPHEMERIS_TYPE": 0,
    "CLASSIFICATION_TYPE": "U",
    "NORAD_CAT_ID": 66210,
    "ELEMENT_SET_NO": 999,
    "REV_AT_EPOCH": 315,
    "BSTAR": 0.0,
    "MEAN_MOTION_DOT": -0.01883349,
    "MEAN_MOTION_DDOT": 0.0,
    "TLE_LINE1": "1 66210U 25244E   25315.25002315 -.01883349  00000+0 -16071-1 0  9999",
    "TLE_LINE2": "2 66210  53.1585  65.5048 0001120  93.4846 107.4892 15.72236877  3158",
    "COMMENT": "Grouped by shell and plane from TLE"
  },
  {
    "OBJECT_NAME": "STARLINK-35723",
    "OBJECT_ID": "25244F",
    "EPOCH": "2025-11-11T06:00:02.000160",
    "MEAN_MOTION": 15.72241745,
    "ECCENTRICITY": 0.0001202,
    "INCLINATION": 53.1587,
    "RA_OF_ASC_NODE": 65.4965,
    "ARG_OF_PERICENTER": 86.8957,
    "MEAN_ANOMALY": 117.9068,
    "EPHEMERIS_TYPE": 0,
    "CLASSIFICATION_TYPE": "U",
    "NORAD_CAT_ID": 66211,
    "ELEMENT_SET_NO": 999,
    "REV_AT_EPOCH": 320,
    "BSTAR": 0.0,
    "MEAN_MOTION_DOT": -0.01887582,
    "MEAN_MOTION_DDOT": 0.0,
    "TLE_LINE1": "1 66211U 25244F   25315.25002315 -.01887582  00000+0 -16109-1 0  9995",
    "TLE_LINE2": "2 66211  53.1587  65.4965 0001202  86.8957 117.9068 15.72241745  3205",
    "COMMENT": "Grouped by shell and plane from TLE"
  }
]